{"type":"FeatureCollection","features":[{"type":"Feature","properties":{"aoi_id":"AOI-A","name":"Saih Al Salam Street D42 Candidate","road_name":"Saih Al Salam Street (D42)","country":"United Arab Emirates","status":"candidate","estimated_length_km":2,"buffer_m":100,"created_by":"Dana Alhammadi","creation_date":"2026-09-20","reason":"Wide divided highway in an open desert environment selected for initial hyperspectral pavement-screening feasibility testing.","notes":"Provisional AOI. Final selection depends on hyperspectral coverage, scene quality, pavement-pixel purity, suitable high-resolution imagery, and validation access."},"geometry":{"type":"Polygon","coordinates":[[[55.204686,24.800594],[55.20557,24.798777],[55.214687,24.802661],[55.219341,24.804525],[55.22382,24.806211],[55.223549,24.806738],[55.223182,24.807545],[55.222832,24.808063],[55.218644,24.806146],[55.213749,24.804012],[55.204686,24.800594]]]}}]}