{"type":"FeatureCollection","features":[{"type":"Feature","properties":{"aoi_id":"AOI-B","name":"Jebel Ali-Lahbab Road E77 Candidate","road_name":"Jebel Ali-Lahbab Road (E77)","country":"United Arab Emirates","status":"candidate","estimated_length_km":2.2,"buffer_m":70,"created_by":"Dana Alhammadi","creation_date":"2026-09-20","reason":"Wide divided highway in a low-clutter desert environment selected as a second candidate for hyperspectral pavement-screening feasibility testing.","notes":"Provisional AOI. Final selection depends on hyperspectral coverage, scene quality, pavement-pixel purity, suitable high-resolution imagery, licence access, and validation feasibility."},"geometry":{"type":"Polygon","coordinates":[[[55.484861,25.008834],[55.485055,25.007278],[55.506788,25.008737],[55.506681,25.009515],[55.505734,25.010149],[55.501173,25.00942],[55.495701,25.009175],[55.484861,25.008834]]]}}]}