{"type":"FeatureCollection","features":[{"type":"Feature","id":0,"geometry":{"type":"Polygon","coordinates":[[[55.217021567491585,24.80323844498637],[55.217030414964327,24.803242043565376],[55.218820076915023,24.803980123123328],[55.219717937821393,24.804355954037884],[55.220239338008298,24.804568477959432],[55.219432793255123,24.806217113123619],[55.218906818082068,24.806002723300754],[55.218897816767999,24.80599900562078],[55.218000486095526,24.80562338611908],[55.216221480423016,24.804889706254301],[55.215798047126384,24.804720721364902],[55.216590448636644,24.803066387889654],[55.217021567491585,24.80323844498637]]]},"properties":{"FID":0,"BUFF_DIST":100,"ORIG_FID":1,"segment_id":"A-001","Shape_Leng":1207.88842254,"Shape_Area":80788.695937199998}},{"type":"Feature","id":1,"geometry":{"type":"Polygon","coordinates":[[[55.205660978077916,24.798605515627386],[55.205691504599066,24.798618356372341],[55.205708127403419,24.798625664745401],[55.205730039808032,24.798634615634676],[55.205788567194922,24.798658484584941],[55.205937609311015,24.79871790513165],[55.205949327107298,24.798722689889722],[55.2062330553591,24.798840650566508],[55.206354608065318,24.798891534239502],[55.206871438489564,24.799106341371388],[55.207528060209448,24.799370704233251],[55.207533104646934,24.79937275454666],[55.208149331361241,24.799625168246198],[55.208589081890494,24.799800124734322],[55.208594667614342,24.799802365675774],[55.209302271904221,24.800088758795152],[55.208500522332152,24.801739322006849],[55.207795931900769,24.801454148163145],[55.20735416481125,24.801278388552713],[55.207346572089136,24.801275329910929],[55.206726231049743,24.801021234605852],[55.206067130567945,24.800755873997606],[55.206057166970666,24.800751792828763],[55.205532451234305,24.800533705564618],[55.205410822624422,24.800482790472067],[55.205136548911725,24.800368760596548],[55.204993201219665,24.800311617683931],[55.204986985312878,24.800309115348785],[55.204922809245296,24.800282944642017],[55.204887507164415,24.800268524225757],[55.204862302181482,24.800257838151605],[55.204856542135389,24.800255068622768],[55.205649916818359,24.798601089928894],[55.205660978077916,24.798605515627386]]]},"properties":{"FID":1,"BUFF_DIST":100,"ORIG_FID":2,"segment_id":"A-002","Shape_Leng":1207.8944691700001,"Shape_Area":80788.7770532}},{"type":"Feature","id":2,"geometry":{"type":"Polygon","coordinates":[[[55.209751932250519,24.800270750933045],[55.210765630766332,24.800679003559107],[55.210773014534752,24.800682015290743],[55.212414163416589,24.80135899653817],[55.212952287799069,24.801578831164971],[55.21214426702786,24.803226852185816],[55.211602871738215,24.803005677040197],[55.209962400911913,24.802328976051083],[55.208951578624188,24.801921878766851],[55.208500522332152,24.801739322006849],[55.209302271904221,24.800088758795152],[55.209751932250519,24.800270750933045]]]},"properties":{"FID":2,"BUFF_DIST":100,"ORIG_FID":3,"segment_id":"A-003","Shape_Leng":1207.88871053,"Shape_Area":80788.836017099995}},{"type":"Feature","id":3,"geometry":{"type":"Polygon","coordinates":[[[55.214472164164491,24.802199724176539],[55.215872467351176,24.802779850864347],[55.216590449625578,24.803066387901445],[55.215798046137444,24.804720721353103],[55.215071606603445,24.804430801965733],[55.2150612379724,24.804426573889899],[55.213659431523823,24.803845815298864],[55.212144268016793,24.803226852197628],[55.212952286810136,24.801578831153158],[55.214472164164491,24.802199724176539]]]},"properties":{"FID":3,"BUFF_DIST":100,"ORIG_FID":4,"segment_id":"A-004","Shape_Leng":1207.8884660799999,"Shape_Area":80788.704735599997}},{"type":"Feature","id":4,"geometry":{"type":"Polygon","coordinates":[[[55.221035224083977,24.804892878640448],[55.221629918503687,24.805129329284572],[55.22274407476327,24.805577956853519],[55.223889408358104,24.806036744398842],[55.223094498846955,24.807690089284698],[55.22194758510939,24.80723066518193],[55.220835858782266,24.806783009939608],[55.220241177983013,24.806546569604883],[55.220234245405543,24.806543783079061],[55.219432792266169,24.806217113111842],[55.220239338997239,24.804568477971198],[55.221035224083977,24.804892878640448]]]},"properties":{"FID":4,"BUFF_DIST":100,"ORIG_FID":5,"segment_id":"A-005","Shape_Leng":1207.8885608999999,"Shape_Area":80788.788071400006}}]}